[
  {
    "OBJECT_NAME": "STARLINK-2581",
    "OBJECT_ID": "2021-038BM",
    "EPOCH": "2025-05-05T23:58:03.437760",
    "MEAN_MOTION": 15.06409937,
    "ECCENTRICITY": 0.0001318,
    "INCLINATION": 53.0546,
    "RA_OF_ASC_NODE": 233.3287,
    "ARG_OF_PERICENTER": 88.6591,
    "MEAN_ANOMALY": 271.4549,
    "EPHEMERIS_TYPE": 0,
    "CLASSIFICATION_TYPE": "U",
    "NORAD_CAT_ID": 48412,
    "ELEMENT_SET_NO": 999,
    "REV_AT_EPOCH": 22221,
    "BSTAR": 0.0010045,
    "MEAN_MOTION_DOT": 0.00014716,
    "MEAN_MOTION_DDOT": 0
  },
  {
    "OBJECT_NAME": "STARLINK-2461",
    "OBJECT_ID": "2021-040A",
    "EPOCH": "2025-05-05T17:47:06.553248",
    "MEAN_MOTION": 15.06385763,
    "ECCENTRICITY": 0.0001433,
    "INCLINATION": 53.0552,
    "RA_OF_ASC_NODE": 129.0494,
    "ARG_OF_PERICENTER": 76.7494,
    "MEAN_ANOMALY": 283.3655,
    "EPHEMERIS_TYPE": 0,
    "CLASSIFICATION_TYPE": "U",
    "NORAD_CAT_ID": 48428,
    "ELEMENT_SET_NO": 999,
    "REV_AT_EPOCH": 22014,
    "BSTAR": -9.7632e-07,
    "MEAN_MOTION_DOT": -2.96e-06,
    "MEAN_MOTION_DDOT": 0
  },
  {
    "OBJECT_NAME": "STARLINK-2700",
    "OBJECT_ID": "2021-040D",
    "EPOCH": "2025-05-05T21:20:02.745888",
    "MEAN_MOTION": 15.06383474,
    "ECCENTRICITY": 0.000127,
    "INCLINATION": 53.0544,
    "RA_OF_ASC_NODE": 93.3882,
    "ARG_OF_PERICENTER": 91.9022,
    "MEAN_ANOMALY": 268.2112,
    "EPHEMERIS_TYPE": 0,
    "CLASSIFICATION_TYPE": "U",
    "NORAD_CAT_ID": 48431,
    "ELEMENT_SET_NO": 999,
    "REV_AT_EPOCH": 22065,
    "BSTAR": 0.00011997,
    "MEAN_MOTION_DOT": 1.505e-05,
    "MEAN_MOTION_DDOT": 0
  },
  {
    "OBJECT_NAME": "STARLINK-2680",
    "OBJECT_ID": "2021-040E",
    "EPOCH": "2025-05-05T06:33:05.107392",
    "MEAN_MOTION": 15.06396349,
    "ECCENTRICITY": 0.0001369,
    "INCLINATION": 53.0548,
    "RA_OF_ASC_NODE": 91.5497,
    "ARG_OF_PERICENTER": 105.1304,
    "MEAN_ANOMALY": 254.9837,
    "EPHEMERIS_TYPE": 0,
    "CLASSIFICATION_TYPE": "U",
    "NORAD_CAT_ID": 48432,
    "ELEMENT_SET_NO": 999,
    "REV_AT_EPOCH": 22062,
    "BSTAR": -7.1688e-05,
    "MEAN_MOTION_DOT": -1.349e-05,
    "MEAN_MOTION_DDOT": 0
  },
  {
    "OBJECT_NAME": "STARLINK-2699",
    "OBJECT_ID": "2021-040F",
    "EPOCH": "2025-05-05T14:48:40.056192",
    "MEAN_MOTION": 15.06396959,
    "ECCENTRICITY": 0.0001315,
    "INCLINATION": 53.0548,
    "RA_OF_ASC_NODE": 94.8884,
    "ARG_OF_PERICENTER": 92.4803,
    "MEAN_ANOMALY": 267.6337,
    "EPHEMERIS_TYPE": 0,
    "CLASSIFICATION_TYPE": "U",
    "NORAD_CAT_ID": 48433,
    "ELEMENT_SET_NO": 999,
    "REV_AT_EPOCH": 22060,
    "BSTAR": -8.3129e-05,
    "MEAN_MOTION_DOT": -1.519e-05,
    "MEAN_MOTION_DDOT": 0
  },
  {
    "OBJECT_NAME": "STARLINK-2692",
    "OBJECT_ID": "2021-040G",
    "EPOCH": "2025-05-05T21:55:20.066880",
    "MEAN_MOTION": 15.06389103,
    "ECCENTRICITY": 0.0001397,
    "INCLINATION": 53.0551,
    "RA_OF_ASC_NODE": 98.7872,
    "ARG_OF_PERICENTER": 88.6517,
    "MEAN_ANOMALY": 271.4632,
    "EPHEMERIS_TYPE": 0,
    "CLASSIFICATION_TYPE": "U",
    "NORAD_CAT_ID": 48434,
    "ELEMENT_SET_NO": 999,
    "REV_AT_EPOCH": 22058,
    "BSTAR": 7.8799e-05,
    "MEAN_MOTION_DOT": 8.92e-06,
    "MEAN_MOTION_DDOT": 0
  },
  {
    "OBJECT_NAME": "STARLINK-2633",
    "OBJECT_ID": "2021-040H",
    "EPOCH": "2025-05-06T06:02:14.320896",
    "MEAN_MOTION": 15.06388621,
    "ECCENTRICITY": 0.0001256,
    "INCLINATION": 53.0545,
    "RA_OF_ASC_NODE": 106.7688,
    "ARG_OF_PERICENTER": 106.3436,
    "MEAN_ANOMALY": 253.7691,
    "EPHEMERIS_TYPE": 0,
    "CLASSIFICATION_TYPE": "U",
    "NORAD_CAT_ID": 48435,
    "ELEMENT_SET_NO": 999,
    "REV_AT_EPOCH": 22177,
    "BSTAR": 0.00018101,
    "MEAN_MOTION_DOT": 2.415e-05,
    "MEAN_MOTION_DDOT": 0
  },
  {
    "OBJECT_NAME": "STARLINK-2639",
    "OBJECT_ID": "2021-040J",
    "EPOCH": "2025-05-05T07:29:24.257184",
    "MEAN_MOTION": 15.06391566,
    "ECCENTRICITY": 0.0001542,
    "INCLINATION": 53.0547,
    "RA_OF_ASC_NODE": 125.9745,
    "ARG_OF_PERICENTER": 78.458,
    "MEAN_ANOMALY": 281.6582,
    "EPHEMERIS_TYPE": 0,
    "CLASSIFICATION_TYPE": "U",
    "NORAD_CAT_ID": 48436,
    "ELEMENT_SET_NO": 999,
    "REV_AT_EPOCH": 22014,
    "BSTAR": 6.2358e-05,
    "MEAN_MOTION_DOT": 6.47e-06,
    "MEAN_MOTION_DDOT": 0
  },
  {
    "OBJECT_NAME": "STARLINK-2642",
    "OBJECT_ID": "2021-040K",
    "EPOCH": "2025-05-05T18:15:37.582560",
    "MEAN_MOTION": 15.06395976,
    "ECCENTRICITY": 0.0001278,
    "INCLINATION": 53.0538,
    "RA_OF_ASC_NODE": 133.9645,
    "ARG_OF_PERICENTER": 92.7128,
    "MEAN_ANOMALY": 267.4008,
    "EPHEMERIS_TYPE": 0,
    "CLASSIFICATION_TYPE": "U",
    "NORAD_CAT_ID": 48437,
    "ELEMENT_SET_NO": 999,
    "REV_AT_EPOCH": 22007,
    "BSTAR": 0.00011231,
    "MEAN_MOTION_DOT": 1.392e-05,
    "MEAN_MOTION_DDOT": 0
  },
  {
    "OBJECT_NAME": "STARLINK-2640",
    "OBJECT_ID": "2021-040L",
    "EPOCH": "2025-05-06T03:07:46.387200",
    "MEAN_MOTION": 15.06389372,
    "ECCENTRICITY": 0.0001465,
    "INCLINATION": 53.0535,
    "RA_OF_ASC_NODE": 122.5729,
    "ARG_OF_PERICENTER": 93.9659,
    "MEAN_ANOMALY": 266.1497,
    "EPHEMERIS_TYPE": 0,
    "CLASSIFICATION_TYPE": "U",
    "NORAD_CAT_ID": 48438,
    "ELEMENT_SET_NO": 999,
    "REV_AT_EPOCH": 22154,
    "BSTAR": 0.00010284,
    "MEAN_MOTION_DOT": 1.25e-05,
    "MEAN_MOTION_DDOT": 0
  },
  {
    "OBJECT_NAME": "STARLINK-2583",
    "OBJECT_ID": "2021-040M",
    "EPOCH": "2025-05-06T05:36:20.857536",
    "MEAN_MOTION": 15.06390544,
    "ECCENTRICITY": 0.0001213,
    "INCLINATION": 53.0539,
    "RA_OF_ASC_NODE": 121.8387,
    "ARG_OF_PERICENTER": 100.1258,
    "MEAN_ANOMALY": 259.9868,
    "EPHEMERIS_TYPE": 0,
    "CLASSIFICATION_TYPE": "U",
    "NORAD_CAT_ID": 48439,
    "ELEMENT_SET_NO": 999,
    "REV_AT_EPOCH": 22156,
    "BSTAR": 0.00018392,
    "MEAN_MOTION_DOT": 2.458e-05,
    "MEAN_MOTION_DDOT": 0
  },
  {
    "OBJECT_NAME": "STARLINK-2682",
    "OBJECT_ID": "2021-040N",
    "EPOCH": "2025-05-06T03:55:32.638080",
    "MEAN_MOTION": 15.06363107,
    "ECCENTRICITY": 0.0001403,
    "INCLINATION": 53.0549,
    "RA_OF_ASC_NODE": 122.1534,
    "ARG_OF_PERICENTER": 95.7548,
    "MEAN_ANOMALY": 264.3601,
    "EPHEMERIS_TYPE": 0,
    "CLASSIFICATION_TYPE": "U",
    "NORAD_CAT_ID": 48440,
    "ELEMENT_SET_NO": 999,
    "REV_AT_EPOCH": 22072,
    "BSTAR": -5.8521e-05,
    "MEAN_MOTION_DOT": -1.152e-05,
    "MEAN_MOTION_DDOT": 0
  },
  {
    "OBJECT_NAME": "STARLINK-2702",
    "OBJECT_ID": "2021-040P",
    "EPOCH": "2025-05-06T05:25:43.880448",
    "MEAN_MOTION": 15.06387179,
    "ECCENTRICITY": 0.0001178,
    "INCLINATION": 53.0549,
    "RA_OF_ASC_NODE": 121.8711,
    "ARG_OF_PERICENTER": 99.9266,
    "MEAN_ANOMALY": 260.1856,
    "EPHEMERIS_TYPE": 0,
    "CLASSIFICATION_TYPE": "U",
    "NORAD_CAT_ID": 48441,
    "ELEMENT_SET_NO": 999,
    "REV_AT_EPOCH": 22156,
    "BSTAR": 0.00014492,
    "MEAN_MOTION_DOT": 1.877e-05,
    "MEAN_MOTION_DDOT": 0
  },
  {
    "OBJECT_NAME": "STARLINK-2644",
    "OBJECT_ID": "2021-040Q",
    "EPOCH": "2025-05-05T16:36:06.438816",
    "MEAN_MOTION": 15.0639471,
    "ECCENTRICITY": 0.0001114,
    "INCLINATION": 53.0525,
    "RA_OF_ASC_NODE": 124.2725,
    "ARG_OF_PERICENTER": 78.7857,
    "MEAN_ANOMALY": 281.3257,
    "EPHEMERIS_TYPE": 0,
    "CLASSIFICATION_TYPE": "U",
    "NORAD_CAT_ID": 48442,
    "ELEMENT_SET_NO": 999,
    "REV_AT_EPOCH": 22020,
    "BSTAR": -9.077e-06,
    "MEAN_MOTION_DOT": -4.16e-06,
    "MEAN_MOTION_DDOT": 0
  }
]