STARLINK-2581           
1 48412U 21038BM  25125.99865090  .00014716  00000+0  10045-2 0  9994
2 48412  53.0546 233.3287 0001318  88.6591 271.4549 15.06409937222217
STARLINK-2461           
1 48428U 21040A   25125.74104807 -.00000296  00000+0 -97632-6 0  9990
2 48428  53.0552 129.0494 0001433  76.7494 283.3655 15.06385763220140
STARLINK-2700           
1 48431U 21040D   25125.88892067  .00001505  00000+0  11997-3 0  9990
2 48431  53.0544  93.3882 0001270  91.9022 268.2112 15.06383474220657
STARLINK-2680           
1 48432U 21040E   25125.27297578 -.00001349  00000+0 -71688-4 0  9992
2 48432  53.0548  91.5497 0001369 105.1304 254.9837 15.06396349220622
STARLINK-2699           
1 48433U 21040F   25125.61713028 -.00001519  00000+0 -83129-4 0  9996
2 48433  53.0548  94.8884 0001315  92.4803 267.6337 15.06396959220603
STARLINK-2692           
1 48434U 21040G   25125.91342670  .00000892  00000+0  78799-4 0  9999
2 48434  53.0551  98.7872 0001397  88.6517 271.4632 15.06389103220588
STARLINK-2633           
1 48435U 21040H   25126.25155464  .00002415  00000+0  18101-3 0  9994
2 48435  53.0545 106.7688 0001256 106.3436 253.7691 15.06388621221773
STARLINK-2639           
1 48436U 21040J   25125.31208631  .00000647  00000+0  62358-4 0  9995
2 48436  53.0547 125.9745 0001542  78.4580 281.6582 15.06391566220141
STARLINK-2642           
1 48437U 21040K   25125.76085165  .00001392  00000+0  11231-3 0  9991
2 48437  53.0538 133.9645 0001278  92.7128 267.4008 15.06395976220079
STARLINK-2640           
1 48438U 21040L   25126.13039800  .00001250  00000+0  10284-3 0  9999
2 48438  53.0535 122.5729 0001465  93.9659 266.1497 15.06389372221548
STARLINK-2583           
1 48439U 21040M   25126.23357474  .00002458  00000+0  18392-3 0  9990
2 48439  53.0539 121.8387 0001213 100.1258 259.9868 15.06390544221569
STARLINK-2682           
1 48440U 21040N   25126.16357220 -.00001152  00000+0 -58521-4 0  9994
2 48440  53.0549 122.1534 0001403  95.7548 264.3601 15.06363107220729
STARLINK-2702           
1 48441U 21040P   25126.22620232  .00001877  00000+0  14492-3 0  9998
2 48441  53.0549 121.8711 0001178  99.9266 260.1856 15.06387179221569
STARLINK-2644           
1 48442U 21040Q   25125.69174119 -.00000416  00000+0 -90770-5 0  9992
2 48442  53.0525 124.2725 0001114  78.7857 281.3257 15.06394710220206
